[{"OBJECT_NAME":"METEOSAT-11 (MSG-4)","OBJECT_ID":"2015-034A","EPOCH":"2026-04-27T02:45:38.841696","MEAN_MOTION":1.00264233,"ECCENTRICITY":0.00015891,"INCLINATION":3.074,"RA_OF_ASC_NODE":71.3738,"ARG_OF_PERICENTER":344.8606,"MEAN_ANOMALY":209.852,"EPHEMERIS_TYPE":0,"CLASSIFICATION_TYPE":"U","NORAD_CAT_ID":40732,"ELEMENT_SET_NO":999,"REV_AT_EPOCH":670,"BSTAR":0,"MEAN_MOTION_DOT":5.5e-7,"MEAN_MOTION_DDOT":0},{"OBJECT_NAME":"ELEKTRO-L 2","OBJECT_ID":"2015-074A","EPOCH":"2026-04-27T01:28:33.725280","MEAN_MOTION":1.00270643,"ECCENTRICITY":0.00022709,"INCLINATION":6.5682,"RA_OF_ASC_NODE":71.1388,"ARG_OF_PERICENTER":256.8337,"MEAN_ANOMALY":254.7105,"EPHEMERIS_TYPE":0,"CLASSIFICATION_TYPE":"U","NORAD_CAT_ID":41105,"ELEMENT_SET_NO":999,"REV_AT_EPOCH":3799,"BSTAR":0,"MEAN_MOTION_DOT":-1.23e-6,"MEAN_MOTION_DDOT":0},{"OBJECT_NAME":"INSAT-3DR","OBJECT_ID":"2016-054A","EPOCH":"2026-04-27T02:50:38.609088","MEAN_MOTION":1.00271598,"ECCENTRICITY":0.0011561,"INCLINATION":0.1158,"RA_OF_ASC_NODE":86.2632,"ARG_OF_PERICENTER":195.0762,"MEAN_ANOMALY":50.4223,"EPHEMERIS_TYPE":0,"CLASSIFICATION_TYPE":"U","NORAD_CAT_ID":41752,"ELEMENT_SET_NO":999,"REV_AT_EPOCH":3530,"BSTAR":0,"MEAN_MOTION_DOT":-8.7e-7,"MEAN_MOTION_DDOT":0},{"OBJECT_NAME":"HIMAWARI-9","OBJECT_ID":"2016-064A","EPOCH":"2026-04-27T11:18:50.924736","MEAN_MOTION":1.00272302,"ECCENTRICITY":8.35e-5,"INCLINATION":0.0404,"RA_OF_ASC_NODE":118.1607,"ARG_OF_PERICENTER":298.966,"MEAN_ANOMALY":108.8139,"EPHEMERIS_TYPE":0,"CLASSIFICATION_TYPE":"U","NORAD_CAT_ID":41836,"ELEMENT_SET_NO":999,"REV_AT_EPOCH":3470,"BSTAR":0,"MEAN_MOTION_DOT":-2.84e-6,"MEAN_MOTION_DDOT":0},{"OBJECT_NAME":"GOES 16","OBJECT_ID":"2016-071A","EPOCH":"2026-04-27T11:42:08.282304","MEAN_MOTION":1.00271289,"ECCENTRICITY":0.0001468,"INCLINATION":0.2145,"RA_OF_ASC_NODE":85.3119,"ARG_OF_PERICENTER":252.2214,"MEAN_ANOMALY":308.7605,"EPHEMERIS_TYPE":0,"CLASSIFICATION_TYPE":"U","NORAD_CAT_ID":41866,"ELEMENT_SET_NO":999,"REV_AT_EPOCH":3459,"BSTAR":0,"MEAN_MOTION_DOT":-1.0e-6,"MEAN_MOTION_DDOT":0},{"OBJECT_NAME":"FENGYUN 4A","OBJECT_ID":"2016-077A","EPOCH":"2026-04-27T12:49:38.652096","MEAN_MOTION":1.00266644,"ECCENTRICITY":0.0007967,"INCLINATION":2.1964,"RA_OF_ASC_NODE":80.7991,"ARG_OF_PERICENTER":140.2222,"MEAN_ANOMALY":310.6053,"EPHEMERIS_TYPE":0,"CLASSIFICATION_TYPE":"U","NORAD_CAT_ID":41882,"ELEMENT_SET_NO":999,"REV_AT_EPOCH":3442,"BSTAR":0,"MEAN_MOTION_DOT":-3.64e-6,"MEAN_MOTION_DDOT":0},{"OBJECT_NAME":"CYGFM05","OBJECT_ID":"2016-078A","EPOCH":"2026-04-27T08:24:35.232192","MEAN_MOTION":15.54464556,"ECCENTRICITY":0.0007082,"INCLINATION":34.9568,"RA_OF_ASC_NODE":236.647,"ARG_OF_PERICENTER":30.0503,"MEAN_ANOMALY":330.0627,"EPHEMERIS_TYPE":0,"CLASSIFICATION_TYPE":"U","NORAD_CAT_ID":41884,"ELEMENT_SET_NO":999,"REV_AT_EPOCH":52083,"BSTAR":0.00041888,"MEAN_MOTION_DOT":0.00028531,"MEAN_MOTION_DDOT":0},{"OBJECT_NAME":"CYGFM04","OBJECT_ID":"2016-078B","EPOCH":"2026-04-27T12:47:43.677888","MEAN_MOTION":15.58716665,"ECCENTRICITY":0.0006025,"INCLINATION":34.9326,"RA_OF_ASC_NODE":205.5159,"ARG_OF_PERICENTER":79.2304,"MEAN_ANOMALY":280.9099,"EPHEMERIS_TYPE":0,"CLASSIFICATION_TYPE":"U","NORAD_CAT_ID":41885,"ELEMENT_SET_NO":999,"REV_AT_EPOCH":52108,"BSTAR":0.00037482,"MEAN_MOTION_DOT":0.00029921,"MEAN_MOTION_DDOT":0},{"OBJECT_NAME":"CYGFM02","OBJECT_ID":"2016-078C","EPOCH":"2026-04-27T11:47:33.226656","MEAN_MOTION":15.61075527,"ECCENTRICITY":0.0007093,"INCLINATION":34.9407,"RA_OF_ASC_NODE":201.625,"ARG_OF_PERICENTER":79.8263,"MEAN_ANOMALY":280.3262,"EPHEMERIS_TYPE":0,"CLASSIFICATION_TYPE":"U","NORAD_CAT_ID":41886,"ELEMENT_SET_NO":999,"REV_AT_EPOCH":52123,"BSTAR":0.00039332,"MEAN_MOTION_DOT":0.00034405,"MEAN_MOTION_DDOT":0},{"OBJECT_NAME":"CYGFM01","OBJECT_ID":"2016-078D","EPOCH":"2026-04-27T08:38:32.621856","MEAN_MOTION":15.55071082,"ECCENTRICITY":0.0006806,"INCLINATION":34.9401,"RA_OF_ASC_NODE":238.0333,"ARG_OF_PERICENTER":23.1927,"MEAN_ANOMALY":336.9103,"EPHEMERIS_TYPE":0,"CLASSIFICATION_TYPE":"U","NORAD_CAT_ID":41887,"ELEMENT_SET_NO":999,"REV_AT_EPOCH":52078,"BSTAR":0.00042252,"MEAN_MOTION_DOT":0.00029431,"MEAN_MOTION_DDOT":0},{"OBJECT_NAME":"CYGFM08","OBJECT_ID":"2016-078E","EPOCH":"2026-04-27T11:09:54.463680","MEAN_MOTION":15.57411357,"ECCENTRICITY":0.0007997,"INCLINATION":34.9432,"RA_OF_ASC_NODE":218.1639,"ARG_OF_PERICENTER":57.0124,"MEAN_ANOMALY":303.1368,"EPHEMERIS_TYPE":0,"CLASSIFICATION_TYPE":"U","NORAD_CAT_ID":41888,"ELEMENT_SET_NO":999,"REV_AT_EPOCH":52105,"BSTAR":0.00036378,"MEAN_MOTION_DOT":0.00027647,"MEAN_MOTION_DDOT":0},{"OBJECT_NAME":"CYGFM07","OBJECT_ID":"2016-078G","EPOCH":"2026-04-27T11:47:44.774016","MEAN_MOTION":15.57495519,"ECCENTRICITY":0.0006454,"INCLINATION":34.9447,"RA_OF_ASC_NODE":206.3732,"ARG_OF_PERICENTER":77.2932,"MEAN_ANOMALY":282.8513,"EPHEMERIS_TYPE":0,"CLASSIFICATION_TYPE":"U","NORAD_CAT_ID":41890,"ELEMENT_SET_NO":999,"REV_AT_EPOCH":52108,"BSTAR":0.00036506,"MEAN_MOTION_DOT":0.00027819,"MEAN_MOTION_DDOT":0},{"OBJECT_NAME":"CYGFM03","OBJECT_ID":"2016-078H","EPOCH":"2026-04-27T12:38:11.626080","MEAN_MOTION":15.57504416,"ECCENTRICITY":0.0005734,"INCLINATION":34.9403,"RA_OF_ASC_NODE":208.0964,"ARG_OF_PERICENTER":64.2994,"MEAN_ANOMALY":295.8322,"EPHEMERIS_TYPE":0,"CLASSIFICATION_TYPE":"U","NORAD_CAT_ID":41891,"ELEMENT_SET_NO":999,"REV_AT_EPOCH":52106,"BSTAR":0.00035897,"MEAN_MOTION_DOT":0.00027357,"MEAN_MOTION_DDOT":0},{"OBJECT_NAME":"FENGYUN 3D","OBJECT_ID":"2017-072A","EPOCH":"2026-04-27T13:06:36.501120","MEAN_MOTION":14.19729321,"ECCENTRICITY":0.0001439,"INCLINATION":99.0094,"RA_OF_ASC_NODE":91.0633,"ARG_OF_PERICENTER":151.6517,"MEAN_ANOMALY":208.4737,"EPHEMERIS_TYPE":0,"CLASSIFICATION_TYPE":"U","NORAD_CAT_ID":43010,"ELEMENT_SET_NO":999,"REV_AT_EPOCH":43780,"BSTAR":0.00019737,"MEAN_MOTION_DOT":3.71e-6,"MEAN_MOTION_DDOT":0},{"OBJECT_NAME":"NOAA 20 (JPSS-1)","OBJECT_ID":"2017-073A","EPOCH":"2026-04-27T11:06:39.212640","MEAN_MOTION":14.19547802,"ECCENTRICITY":0.000209,"INCLINATION":98.7747,"RA_OF_ASC_NODE":57.3829,"ARG_OF_PERICENTER":71.1786,"MEAN_ANOMALY":288.9617,"EPHEMERIS_TYPE":0,"CLASSIFICATION_TYPE":"U","NORAD_CAT_ID":43013,"ELEMENT_SET_NO":999,"REV_AT_EPOCH":43727,"BSTAR":4.5328e-5,"MEAN_MOTION_DOT":5.1e-7,"MEAN_MOTION_DDOT":0},{"OBJECT_NAME":"GOES 17","OBJECT_ID":"2018-022A","EPOCH":"2026-04-27T11:18:21.418272","MEAN_MOTION":1.00271953,"ECCENTRICITY":6.58e-5,"INCLINATION":0.8095,"RA_OF_ASC_NODE":86.3935,"ARG_OF_PERICENTER":279.73,"MEAN_ANOMALY":289.4348,"EPHEMERIS_TYPE":0,"CLASSIFICATION_TYPE":"U","NORAD_CAT_ID":43226,"ELEMENT_SET_NO":999,"REV_AT_EPOCH":2991,"BSTAR":0,"MEAN_MOTION_DOT":-1.91e-6,"MEAN_MOTION_DDOT":0},{"OBJECT_NAME":"FENGYUN 2H","OBJECT_ID":"2018-050A","EPOCH":"2026-04-27T00:12:41.004288","MEAN_MOTION":1.00274296,"ECCENTRICITY":0.00016726,"INCLINATION":2.9019,"RA_OF_ASC_NODE":79.6483,"ARG_OF_PERICENTER":158.5665,"MEAN_ANOMALY":59.218,"EPHEMERIS_TYPE":0,"CLASSIFICATION_TYPE":"U","NORAD_CAT_ID":43491,"ELEMENT_SET_NO":999,"REV_AT_EPOCH":2892,"BSTAR":0,"MEAN_MOTION_DOT":-1.38e-6,"MEAN_MOTION_DDOT":0}]
