METEOSAT-11 (MSG-4)     
1 40732U 15034A   26117.11503289  .00000055  00000+0  00000+0 0  9993
2 40732   3.0740  71.3738 0001589 344.8606 209.8520  1.00264233  6705
ELEKTRO-L 2             
1 41105U 15074A   26117.06150145 -.00000123  00000+0  00000+0 0  9992
2 41105   6.5682  71.1388 0002270 256.8337 254.7105  1.00270643 37998
INSAT-3DR               
1 41752U 16054A   26117.11850242 -.00000087  00000+0  00000+0 0  9999
2 41752   0.1158  86.2632 0011561 195.0762  50.4223  1.00271598 35307
HIMAWARI-9              
1 41836U 16064A   26117.47142274 -.00000284  00000+0  00000+0 0  9990
2 41836   0.0404 118.1607 0000835 298.9660 108.8139  1.00272302 34703
GOES 16                 
1 41866U 16071A   26117.48759586 -.00000100  00000+0  00000+0 0  9999
2 41866   0.2145  85.3119 0001468 252.2214 308.7605  1.00271289 34593
FENGYUN 4A              
1 41882U 16077A   26117.53447514 -.00000364  00000+0  00000+0 0  9996
2 41882   2.1964  80.7991 0007967 140.2222 310.6053  1.00266644 34423
CYGFM05                 
1 41884U 16078A   26117.35040778  .00028531  00000+0  41888-3 0  9998
2 41884  34.9568 236.6470 0007082  30.0503 330.0627 15.54464556520832
CYGFM04                 
1 41885U 16078B   26117.53314442  .00029921  00000+0  37482-3 0  9990
2 41885  34.9326 205.5159 0006025  79.2304 280.9099 15.58716665521083
CYGFM02                 
1 41886U 16078C   26117.49135679  .00034405  00000+0  39332-3 0  9998
2 41886  34.9407 201.6250 0007093  79.8263 280.3262 15.61075527521231
CYGFM01                 
1 41887U 16078D   26117.36009979  .00029431  00000+0  42252-3 0  9996
2 41887  34.9401 238.0333 0006806  23.1927 336.9103 15.55071082520788
CYGFM08                 
1 41888U 16078E   26117.46521370  .00027647  00000+0  36378-3 0  9991
2 41888  34.9432 218.1639 0007997  57.0124 303.1368 15.57411357521053
CYGFM07                 
1 41890U 16078G   26117.49149044  .00027819  00000+0  36506-3 0  9995
2 41890  34.9447 206.3732 0006454  77.2932 282.8513 15.57495519521083
CYGFM03                 
1 41891U 16078H   26117.52652345  .00027357  00000+0  35897-3 0  9992
2 41891  34.9403 208.0964 0005734  64.2994 295.8322 15.57504416521063
FENGYUN 3D              
1 43010U 17072A   26117.54625580  .00000371  00000+0  19737-3 0  9997
2 43010  99.0094  91.0633 0001439 151.6517 208.4737 14.19729321437808
NOAA 20 (JPSS-1)        
1 43013U 17073A   26117.46295385  .00000051  00000+0  45328-4 0  9999
2 43013  98.7747  57.3829 0002090  71.1786 288.9617 14.19547802437275
GOES 17                 
1 43226U 18022A   26117.47108123 -.00000191  00000+0  00000+0 0  9993
2 43226   0.8095  86.3935 0000658 279.7300 289.4348  1.00271953 29919
FENGYUN 2H              
1 43491U 18050A   26117.00880792 -.00000138  00000+0  00000+0 0  9997
2 43491   2.9019  79.6483 0001672 158.5665  59.2180  1.00274296 28920
